LES-1
1  1002U 65008C   18278.91813982 -.00000002 +00000-0 -14126-2 0  9999
2  1002 032.1414 224.5058 0015486 189.9846 170.0344 09.88353130938048
PROSPERO
1  5580U 71093A   18279.80491489  .00000158  00000-0  33462-4 0  9994
2  5580  82.0433 216.8207 0528411 301.3328  53.7132 13.94381319357375
AO-07
1  7530U 74089B   18279.51623687 -.00000027  00000-0  11204-3 0  9999
2  7530 101.7020 245.2228 0012344 118.5790  22.9058 12.53634767  8545
AO-10
1 14129U 83058B   18279.38714382 -.00000148  00000-0  00000+0 0  9997
2 14129  26.7969 317.9320 6022332  72.7254 341.9697  2.05866254237625
UO-11
1 14781U 84021B   18278.92323901 +.00000062 +00000-0 +13763-4 0  9993
2 14781 097.6399 310.3577 0010008 081.6237 278.6112 14.83034007839858
LO-19
1 20442U 90005G   18279.37933232  .00000003  00000-0  17426-4 0  9992
2 20442  98.6171 217.2218 0011688 176.7774 183.3487 14.32906119499813
HUBBLE
1 20580U 90037B   18278.90248497  .00000425  00000-0  14989-4 0  9999
2 20580  28.4691 103.1797 0002575 251.8126 251.6108 15.09104743362210
AO-27
1 22825U 93061C   18279.18976112  .00000000  00000-0  17939-4 0  9993
2 22825  98.8757 257.3843 0008951  29.6697 330.4991 14.30040862305431
IO-26
1 22826U 93061D   18279.18086198  .00000004  00000-0  19312-4 0  9991
2 22826  98.8697 257.3989 0009297  19.2932 340.8600 14.30372912305624
POSAT-1
1 22829U 93061G   18279.51910001  .00000010  00000-0  21299-4 0  9994
2 22829  98.8624 259.4308 0009278 335.2618 107.7455 14.31012738306195
RS-15
1 23439U 94085A   18279.71661336 -.00000037  00000-0  16591-3 0  9993
2 23439  64.8160 168.4645 0153575 161.7400 232.6744 11.27568411979309
FO-29
1 24278U 96046B   18278.92456491 -.00000007 +00000-0 +28090-4 0  9995
2 24278 098.5150 102.4179 0350308 183.4208 176.4531 13.53085889092965
NOAA-15
1 25338U 98030A   18279.48473951  .00000034  00000-0  33008-4 0  9994
2 25338  98.7663 295.9729 0009406 263.5194  96.4915 14.25877858 60885
GO-32
1 25397U 98043D   18279.07679722 -.00000019  00000-0  10720-4 0  9992
2 25397  98.6575 217.7177 0002340  71.5846 288.5587 14.23652393 51502
ISS
1 25544U 98067A   18279.86045506  .00001740  00000-0  33924-4 0  9998
2 25544  51.6412 182.2072 0003604 249.5184 195.1296 15.53784221135885
IMAGE
1 26113U 00017A   18278.02627570  .00000395  00000-0  71605-1 0  9993
2 26113  94.0470 264.1514 7272347 251.7415  22.4884  1.68650967114090
AO-40
1 26609U 00072B   18277.50578097 -.00000117 +00000-0 +00000-0 0  9998
2 26609 006.3547 120.0901 7978141 306.5498 004.0358 01.25587456082187
NO-44
1 26931U 01043C   18278.54221570 -.00000022  00000-0  23205-4 0  9992
2 26931  67.0506 304.6568 0007328 259.9700 100.0574 14.30518663888335
SO-50
1 27607U 02058C   18279.84332894 -.00000011  00000-0  19311-4 0  9997
2 27607  64.5535 108.7196 0075399 305.2378  54.1682 14.75485063849432
CO-55
1 27844U 03031E   18278.98159604  .00000056  00000-0  45128-4 0  9995
2 27844  98.6880 286.0073 0010729  54.9089 305.3094 14.22136314791947
CO-57
1 27848U 03031J   18279.88675605  .00000047  00000-0  41013-4 0  9992
2 27848  98.6964 287.3330 0010703  62.4377 297.7886 14.21737758791930
RS-22
1 27939U 03042A   18279.87057969  .00000070  00000-0  21039-4 0  9993
2 27939  98.0070  56.2274 0013673 149.9352   1.3630 14.66720355803187
VO-52
1 28650U 05017B   18279.45362025  .00000299  00000-0  37453-4 0  9994
2 28650  97.7125 244.5797 0023435 358.5978   1.5169 14.88999561727035
NOAA-18
1 28654U 05018A   18279.53996808  .00000020  00000-0  35785-4 0  9998
2 28654  99.1348 317.2012 0014582 171.2210 188.9219 14.12386504689501
CO-58
1 28895U 05043F   18278.89428004  .00000135  00000-0  34654-4 0  9990
2 28895  97.9247  65.9669 0018161  80.7779 279.5477 14.63587047690076
CO-65
1 32785U 08021C   18278.85739251  .00000197  00000-0  26962-4 0  9998
2 32785  97.5477 285.7541 0013996  37.1193 323.0990 14.88182852565638
FALCONSAT-3
1 30776U 07006E   18279.18144926  .00002597  00000-0  76140-4 0  9993
2 30776  35.4355 279.9164 0003547 302.7071  57.3313 15.34998069641385
AAUSAT2
1 32788U 08021F   18279.50561624  .00000187  00000-0  22333-4 0  9998
2 32788  97.5158 301.3425 0011286 343.1409  16.9436 14.94468239566809
DO-64
1 32789U 08021G   18279.12220764  .00000632  00000-0  47039-4 0  9999
2 32789  97.5008 331.0706 0010768 279.9990  80.0022 15.06341781568486
CO-66
1 32791U 08021J   18279.50306094  .00000347  00000-0  40721-4 0  9999
2 32791  97.5342 291.9650 0013719  14.6949 345.4666 14.90640259566090
RS-30
1 32953U 08025A   18279.83194285  .00000039  00000-0  21098-3 0  9999
2 32953  82.4998 303.2482 0018312 329.3378  30.6631 12.43085944470646
PRISM
1 33493U 09002B   18279.84596739  .00001001  00000-0  93937-4 0  9998
2 33493  98.1208 186.1706 0014527 312.1277  47.8665 14.96360563527040
STARS-1
1 33498U 09002G   18279.14852484  .00000183  00000-0  32470-4 0  9993
2 33498  98.3270 114.6957 0009768 267.1030  92.9062 14.78867624522235
KKS-1
1 33499U 09002H   18279.88022842  .00000090  00000-0  21339-4 0  9991
2 33499  98.3579 105.2990 0008119 302.0357  58.0061 14.75367006521654
NOAA-19
1 33591U 09005A   18279.58038155  .00000064  00000-0  60206-4 0  9995
2 33591  99.1545 259.8825 0014353  18.1961 341.9721 14.12311148497897
SWISSCUBE
1 35932U 09051B   18278.92682530 +.00000127 +00000-0 +39754-4 0  9990
2 35932 098.5603 072.8461 0006854 223.9496 136.1156 14.56200750479510
BEESAT
1 35933U 09051C   18279.01505412  .00000113  00000-0  36401-4 0  9996
2 35933  98.5639  74.5537 0004887 236.8285 123.2443 14.56299979479670
ITUPSAT-1
1 35935U 09051E   18278.92636641 +.00000071 +00000-0 +27481-4 0  9997
2 35935 098.5750 074.7129 0007230 234.3813 125.6710 14.55472100479402
HO-68
1 36122U 09072B   18279.20768469 -.00000005  00000-0  97244-4 0  9997
2 36122 100.0750 288.6409 0007108 211.8633 148.2052 13.16346634423251
TISAT-1
1 36799U 10035E   18279.39574489  .00000493  00000-0  56117-4 0  9999
2 36799  98.1224  58.6703 0011941 197.6919 162.3884 14.90895146446721
OOREOS
1 37224U 10062C   18278.40105499 +.00000065 +00000-0 +15541-4 0 03978
2 37224 071.9718 245.3706 0018698 325.0907 034.9049 14.82157621070146
SRMSAT
1 37841U 11058D   18278.93891704 +.00000306 +00000-0 +23120-4 0  9996
2 37841 019.9713 137.1537 0011796 267.0918 218.8127 14.10615786360444
RAX-2
1 37853U 11061D   18279.30043356  .00001232  00000-0  75040-4 0  9994
2 37853 101.7119  31.6474 0172034 124.6487 237.1077 15.02854000378125
AUBIESAT-1
1 37854U 11061E   18279.79153927  .00001282  00000-0  73782-4 0  9990
2 37854 101.7052  41.9201 0162752 102.4506 259.4971 15.05780319378625
E1P_M-CUBED
1 37855U 11061F   18278.92952262 +.00001609 +00000-0 +88903-4 0  9998
2 37855 101.7175 038.1161 0175669 114.4410 247.5239 15.04764336377830
HORYU-2
1 38340U 12025D   18279.14768258  .00000177  00000-0  33984-4 0  9992
2 38340  98.3602 304.6426 0010889 212.5139 147.5400 14.75607401343479
RS-40
1 38735U 12041C   18279.87185302 -.00000004  00000-0 -10328-3 0  9998
2 38735  82.4806  26.9728 0017655  73.0266 287.2747 12.42577678280903
AENEAS
1 38760U 12048C   18278.43916520 +.00001572 +00000-0 +99760-4 0 04383
2 38760 064.6620 294.2703 0144833 311.0547 047.8131 15.04914207071253
METOP-B
1 38771U 12049A   18278.95540774 -.00000009 +00000-0 +15846-4 0  9997
2 38771 098.7022 336.4535 0001289 023.9112 102.1113 14.21495581313874
AAUSAT3
1 39087U 13009B   18279.82466094  .00000073  00000-0  40570-4 0  9996
2 39087  98.5102 124.8891 0012296 330.0515  29.9972 14.35657683293903
STRAND-1
1 39090U 13009E   18279.52986615  .00000038  00000-0  28550-4 0  9998
2 39090  98.5107 124.4118 0008672 333.8253  26.2493 14.35052440293798
RS-43
1 39133U 13015D   18279.84812491  .00000112  00000-0  20280-4 0  9993
2 39133  64.8734 218.7612 0010476 212.8630 147.1840 15.04613451300008
SOMP
1 39134U 13015E   18278.98137445  .00000940  00000-0  53472-4 0  9995
2 39134  64.8625 128.4345 0003903 301.0900  58.9844 15.19454123301735
BEESAT-3
1 39135U 13015F   18279.38487828  .00000757  00000-0  48095-4 0  9995
2 39135  64.8670 141.9462 0011835 234.3472 125.6552 15.16904681301511
BEESAT-2
1 39136U 13015G   18279.59199280  .00000725  00000-0  47165-4 0  9993
2 39136  64.8680 144.3675 0012316 234.8214 125.1759 15.16362850301486
TURKSAT-3U
1 39152U 13018C   18279.84111802  .00000178  00000-0  30087-4 0  9993
2 39152  97.9279   6.8343 0015552 298.6346  61.3301 14.80564370294091
CUBEBUG-1
1 39153U 13018D   18279.83104114  .00000176  00000-0  30039-4 0  9996
2 39153  97.9803  14.4416 0015803 307.2224  52.7545 14.80446674294104
ESTCUBE-1
1 39161U 13021C   18279.70491418  .00000105  00000-0  24527-4 0  9998
2 39161  98.0039   3.8507 0011100  63.9151 296.3177 14.72109209290856
CUSAT
1 39266U 13055B   18279.51493498  .00002829  00000-0  78656-4 0  9997
2 39266  80.9863 230.4305 0643878 272.6310  80.1378 14.33306796260137
DANDE
1 39267U 13055C   18279.53962549  .00004432  00000-0  13101-3 0  9993
2 39267  81.0088 258.8679 0702039 339.9849  17.4985 14.19722699258565
ESHAIL-1
1 39233U 13044A   18278.88886106  .00000118  00000-0  00000+0 0  9992
2 39233   0.0245   1.5881 0001517 195.1751 163.2318  1.00268068 18711
ZACUBE-1
1 39417U 13066B   18279.52687910  .00000207  00000-0  32388-4 0  9992
2 39417  97.5806 302.1811 0059892 149.2200 211.2548 14.80987662263272
UNISAT-5
1 39421U 13066F   18279.71225501  .00000178  00000-0  25153-4 0  9991
2 39421  97.5805 322.4181 0032634 101.4984 258.9900 14.87614246264492
TRITON-1
1 39427U 13066M   18278.94871093 +.00000161 +00000-0 +34028-4 0  9997
2 39427 097.6505 267.5904 0112491 264.5297 094.3069 14.67723171260632
DELFI-N3XT
1 39428U 13066N   18279.47455988  .00000311  00000-0  58084-4 0  9993
2 39428  97.6620 265.9041 0119566 273.3291  85.4243 14.67199069260680
GOMX-1
1 39430U 13066Q   18279.80847717  .00000267  00000-0  57668-4 0  9995
2 39430  97.7107 248.7144 0151082 338.8065  20.6919 14.59135571259422
